[{"OBJECT_NAME":"STARLINK-1281","OBJECT_ID":"2020-019L","EPOCH":"2026-03-10T00:00:02.999808","MEAN_MOTION":15.29341528,"ECCENTRICITY":0.00017582,"INCLINATION":53.1566,"RA_OF_ASC_NODE":163.8375,"ARG_OF_PERICENTER":99.1005,"MEAN_ANOMALY":277.6835,"EPHEMERIS_TYPE":0,"CLASSIFICATION_TYPE":"U","NORAD_CAT_ID":45370,"ELEMENT_SET_NO":999,"REV_AT_EPOCH":579,"BSTAR":0.00064184087,"MEAN_MOTION_DOT":0.00018202,"MEAN_MOTION_DDOT":0},{"OBJECT_NAME":"EOSSAT-1","OBJECT_ID":"2023-001AW","EPOCH":"2026-03-09T17:40:07.010400","MEAN_MOTION":15.32339828,"ECCENTRICITY":0.00112629,"INCLINATION":97.3357,"RA_OF_ASC_NODE":130.2294,"ARG_OF_PERICENTER":110.3168,"MEAN_ANOMALY":249.9285,"EPHEMERIS_TYPE":0,"CLASSIFICATION_TYPE":"U","NORAD_CAT_ID":55053,"ELEMENT_SET_NO":999,"REV_AT_EPOCH":17668,"BSTAR":0.00024844399,"MEAN_MOTION_DOT":7.695e-5,"MEAN_MOTION_DDOT":0}]
